STARLINK-1259
1 25403C 20019AV  21325.12204417 -.00000653  00000-0 -43764-4 0  3259
2 25403  53.0548 342.6901 0001751  66.3343 212.1730 15.06392214    17
